[{"OBJECT_NAME":"STARLINK-5629","OBJECT_ID":"2023-014AE","EPOCH":"2026-03-09T11:43:08.837472","MEAN_MOTION":14.98325746,"ECCENTRICITY":0.00029243,"INCLINATION":69.9995,"RA_OF_ASC_NODE":84.903,"ARG_OF_PERICENTER":265.6954,"MEAN_ANOMALY":94.3871,"EPHEMERIS_TYPE":0,"CLASSIFICATION_TYPE":"U","NORAD_CAT_ID":55419,"ELEMENT_SET_NO":999,"REV_AT_EPOCH":17153,"BSTAR":-1.3595516e-5,"MEAN_MOTION_DOT":-2.55e-6,"MEAN_MOTION_DDOT":0},{"OBJECT_NAME":"UK-DMC","OBJECT_ID":"2003-042D","EPOCH":"2026-03-09T11:57:51.003072","MEAN_MOTION":14.8677093,"ECCENTRICITY":0.0054153,"INCLINATION":98.0812,"RA_OF_ASC_NODE":255.9431,"ARG_OF_PERICENTER":168.0294,"MEAN_ANOMALY":192.2222,"EPHEMERIS_TYPE":0,"CLASSIFICATION_TYPE":"U","NORAD_CAT_ID":27942,"ELEMENT_SET_NO":999,"REV_AT_EPOCH":20795,"BSTAR":0.00022518854,"MEAN_MOTION_DOT":1.999e-5,"MEAN_MOTION_DDOT":0}]
